STARLINK-31588          
1 59335U 24057R   25252.05038336  .00000025  00000+0  10441-4 0  9997
2 59335  43.0042 132.5350 0001274 288.5028  71.5685 15.27566317 82067
STARLINK-31596          
1 59336U 24057S   25252.05425653 -.00000979  00000+0 -26082-4 0  9998
2 59336  42.9981 132.5668 0000614 327.3250  32.7563 15.27556206 82066
STARLINK-31612          
1 59337U 24057T   25252.01197404 -.00005368  00000+0 -18555-3 0  9997
2 59337  43.0002 133.1053 0000884 264.5919  95.4832 15.27604968 82054
STARLINK-31550          
1 59338U 24057U   25252.03767531  .00002949  00000+0  11664-3 0  9998
2 59338  43.0037 133.2982 0000930 291.5549  68.5204 15.27583233 82051
STARLINK-31473          
1 59339U 24057V   25251.41193261 -.00003231  00000+0 -10790-3 0  9999
2 59339  43.0037 136.3441 0001487 280.6654  79.4030 15.27586857 81962
STARLINK-31562          
1 59340U 24057W   25252.03075188  .00001024  00000+0  46734-4 0  9991
2 59340  43.0046 147.9715 0001238 279.0725  80.9987 15.27585697 81881
STARLINK-31600          
1 59341U 24057X   25252.07010657  .00001855  00000+0  76919-4 0  9996
2 59341  43.0023 140.4738 0001182 280.7706  79.3013 15.27583215 81972
STARLINK-31628          
1 59342U 24057Y   25252.02097310 -.00001895  00000+0 -59368-4 0  9998
2 59342  43.0007 133.1696 0001151 296.6021  63.4713 15.27580953 82056
STARLINK-31605          
1 59348U 24060A   25252.22611262  .00002692  00000+0  10730-3 0  9991
2 59348  43.0018 193.9970 0000643 289.9501  70.1282 15.27581215 82379
STARLINK-31532          
1 59349U 24060B   25252.24779800  .00012577  00000+0  46567-3 0  9997
2 59349  43.0011 204.5492 0000930 271.1658  88.9088 15.27588768 82366
STARLINK-31593          
1 59350U 24060C   25252.15285434  .00007874  00000+0  29534-3 0  9993
2 59350  42.9995 204.6903 0000767 255.7384 104.3382 15.27581407 82304
STARLINK-31555          
1 59351U 24060D   25252.19011739  .00002437  00000+0  98040-4 0  9992
2 59351  43.0022 204.9826 0001131 294.5627  65.5106 15.27581640 82358
STARLINK-31561          
1 59352U 24060E   25252.28105838  .00015631  00000+0  57601-3 0  9994
2 59352  42.9992 203.9358 0001269 285.3347  74.7364 15.27599495 82323
STARLINK-31413          
1 59353U 24060F   25252.22979382 -.00002432  00000+0 -78813-4 0  9998
2 59353  43.0008 204.4088 0001070 265.4487  94.6242 15.27610439 82311
STARLINK-31422          
1 59354U 24060G   25252.27734315  .00000982  00000+0  45184-4 0  9990
2 59354  43.0007 204.7685 0000884 255.5303 104.5451 15.27586100 82316
STARLINK-31416          
1 59355U 24060H   25251.59780197 -.00000359  00000+0 -35448-5 0  9997
2 59355  43.0026 208.2676 0000926  94.0436 266.0522 15.27565184 82218
