[{"OBJECT_NAME":"STARLINK-31588","OBJECT_ID":"2024-057R","EPOCH":"2025-09-09T01:12:33.122304","MEAN_MOTION":15.27566317,"ECCENTRICITY":0.0001274,"INCLINATION":43.0042,"RA_OF_ASC_NODE":132.535,"ARG_OF_PERICENTER":288.5028,"MEAN_ANOMALY":71.5685,"EPHEMERIS_TYPE":0,"CLASSIFICATION_TYPE":"U","NORAD_CAT_ID":59335,"ELEMENT_SET_NO":999,"REV_AT_EPOCH":8206,"BSTAR":1.0441231e-5,"MEAN_MOTION_DOT":2.5e-7,"MEAN_MOTION_DDOT":0},{"OBJECT_NAME":"STARLINK-31596","OBJECT_ID":"2024-057S","EPOCH":"2025-09-09T01:18:07.764192","MEAN_MOTION":15.27556206,"ECCENTRICITY":6.145e-5,"INCLINATION":42.9981,"RA_OF_ASC_NODE":132.5668,"ARG_OF_PERICENTER":327.325,"MEAN_ANOMALY":32.7563,"EPHEMERIS_TYPE":0,"CLASSIFICATION_TYPE":"U","NORAD_CAT_ID":59336,"ELEMENT_SET_NO":999,"REV_AT_EPOCH":8206,"BSTAR":-2.6082283e-5,"MEAN_MOTION_DOT":-9.79e-6,"MEAN_MOTION_DDOT":0},{"OBJECT_NAME":"STARLINK-31612","OBJECT_ID":"2024-057T","EPOCH":"2025-09-09T00:17:14.557056","MEAN_MOTION":15.27604968,"ECCENTRICITY":8.848e-5,"INCLINATION":43.0002,"RA_OF_ASC_NODE":133.1053,"ARG_OF_PERICENTER":264.5919,"MEAN_ANOMALY":95.4832,"EPHEMERIS_TYPE":0,"CLASSIFICATION_TYPE":"U","NORAD_CAT_ID":59337,"ELEMENT_SET_NO":999,"REV_AT_EPOCH":8205,"BSTAR":-0.00018554576,"MEAN_MOTION_DOT":-5.368e-5,"MEAN_MOTION_DDOT":0},{"OBJECT_NAME":"STARLINK-31550","OBJECT_ID":"2024-057U","EPOCH":"2025-09-09T00:54:15.146784","MEAN_MOTION":15.27583233,"ECCENTRICITY":9.302e-5,"INCLINATION":43.0037,"RA_OF_ASC_NODE":133.2982,"ARG_OF_PERICENTER":291.5549,"MEAN_ANOMALY":68.5204,"EPHEMERIS_TYPE":0,"CLASSIFICATION_TYPE":"U","NORAD_CAT_ID":59338,"ELEMENT_SET_NO":999,"REV_AT_EPOCH":8205,"BSTAR":0.00011664379,"MEAN_MOTION_DOT":2.949e-5,"MEAN_MOTION_DDOT":0},{"OBJECT_NAME":"STARLINK-31473","OBJECT_ID":"2024-057V","EPOCH":"2025-09-08T09:53:10.977504","MEAN_MOTION":15.27586857,"ECCENTRICITY":0.00014874,"INCLINATION":43.0037,"RA_OF_ASC_NODE":136.3441,"ARG_OF_PERICENTER":280.6654,"MEAN_ANOMALY":79.403,"EPHEMERIS_TYPE":0,"CLASSIFICATION_TYPE":"U","NORAD_CAT_ID":59339,"ELEMENT_SET_NO":999,"REV_AT_EPOCH":8196,"BSTAR":-0.00010790322,"MEAN_MOTION_DOT":-3.231e-5,"MEAN_MOTION_DDOT":0},{"OBJECT_NAME":"STARLINK-31562","OBJECT_ID":"2024-057W","EPOCH":"2025-09-09T00:44:16.962432","MEAN_MOTION":15.27585697,"ECCENTRICITY":0.00012386,"INCLINATION":43.0046,"RA_OF_ASC_NODE":147.9715,"ARG_OF_PERICENTER":279.0725,"MEAN_ANOMALY":80.9987,"EPHEMERIS_TYPE":0,"CLASSIFICATION_TYPE":"U","NORAD_CAT_ID":59340,"ELEMENT_SET_NO":999,"REV_AT_EPOCH":8188,"BSTAR":4.6734441e-5,"MEAN_MOTION_DOT":1.024e-5,"MEAN_MOTION_DDOT":0},{"OBJECT_NAME":"STARLINK-31600","OBJECT_ID":"2024-057X","EPOCH":"2025-09-09T01:40:57.207648","MEAN_MOTION":15.27583215,"ECCENTRICITY":0.00011821,"INCLINATION":43.0023,"RA_OF_ASC_NODE":140.4738,"ARG_OF_PERICENTER":280.7706,"MEAN_ANOMALY":79.3013,"EPHEMERIS_TYPE":0,"CLASSIFICATION_TYPE":"U","NORAD_CAT_ID":59341,"ELEMENT_SET_NO":999,"REV_AT_EPOCH":8197,"BSTAR":7.6918812e-5,"MEAN_MOTION_DOT":1.855e-5,"MEAN_MOTION_DDOT":0},{"OBJECT_NAME":"STARLINK-31628","OBJECT_ID":"2024-057Y","EPOCH":"2025-09-09T00:30:12.075840","MEAN_MOTION":15.27580953,"ECCENTRICITY":0.00011519,"INCLINATION":43.0007,"RA_OF_ASC_NODE":133.1696,"ARG_OF_PERICENTER":296.6021,"MEAN_ANOMALY":63.4713,"EPHEMERIS_TYPE":0,"CLASSIFICATION_TYPE":"U","NORAD_CAT_ID":59342,"ELEMENT_SET_NO":999,"REV_AT_EPOCH":8205,"BSTAR":-5.936842e-5,"MEAN_MOTION_DOT":-1.895e-5,"MEAN_MOTION_DDOT":0},{"OBJECT_NAME":"STARLINK-31605","OBJECT_ID":"2024-060A","EPOCH":"2025-09-09T05:25:36.130368","MEAN_MOTION":15.27581215,"ECCENTRICITY":6.436e-5,"INCLINATION":43.0018,"RA_OF_ASC_NODE":193.997,"ARG_OF_PERICENTER":289.9501,"MEAN_ANOMALY":70.1282,"EPHEMERIS_TYPE":0,"CLASSIFICATION_TYPE":"U","NORAD_CAT_ID":59348,"ELEMENT_SET_NO":999,"REV_AT_EPOCH":8237,"BSTAR":0.00010730227,"MEAN_MOTION_DOT":2.692e-5,"MEAN_MOTION_DDOT":0},{"OBJECT_NAME":"STARLINK-31532","OBJECT_ID":"2024-060B","EPOCH":"2025-09-09T05:56:49.747200","MEAN_MOTION":15.27588768,"ECCENTRICITY":9.302e-5,"INCLINATION":43.0011,"RA_OF_ASC_NODE":204.5492,"ARG_OF_PERICENTER":271.1658,"MEAN_ANOMALY":88.9088,"EPHEMERIS_TYPE":0,"CLASSIFICATION_TYPE":"U","NORAD_CAT_ID":59349,"ELEMENT_SET_NO":999,"REV_AT_EPOCH":8236,"BSTAR":0.00046567019,"MEAN_MOTION_DOT":0.00012577,"MEAN_MOTION_DDOT":0},{"OBJECT_NAME":"STARLINK-31593","OBJECT_ID":"2024-060C","EPOCH":"2025-09-09T03:40:06.614976","MEAN_MOTION":15.27581407,"ECCENTRICITY":7.671e-5,"INCLINATION":42.9995,"RA_OF_ASC_NODE":204.6903,"ARG_OF_PERICENTER":255.7384,"MEAN_ANOMALY":104.3382,"EPHEMERIS_TYPE":0,"CLASSIFICATION_TYPE":"U","NORAD_CAT_ID":59350,"ELEMENT_SET_NO":999,"REV_AT_EPOCH":8230,"BSTAR":0.00029533918,"MEAN_MOTION_DOT":7.874e-5,"MEAN_MOTION_DDOT":0},{"OBJECT_NAME":"STARLINK-31555","OBJECT_ID":"2024-060D","EPOCH":"2025-09-09T04:33:46.142496","MEAN_MOTION":15.2758164,"ECCENTRICITY":0.00011318,"INCLINATION":43.0022,"RA_OF_ASC_NODE":204.9826,"ARG_OF_PERICENTER":294.5627,"MEAN_ANOMALY":65.5106,"EPHEMERIS_TYPE":0,"CLASSIFICATION_TYPE":"U","NORAD_CAT_ID":59351,"ELEMENT_SET_NO":999,"REV_AT_EPOCH":8235,"BSTAR":9.8039648e-5,"MEAN_MOTION_DOT":2.437e-5,"MEAN_MOTION_DDOT":0},{"OBJECT_NAME":"STARLINK-31561","OBJECT_ID":"2024-060E","EPOCH":"2025-09-09T06:44:43.444032","MEAN_MOTION":15.27599495,"ECCENTRICITY":0.00012691,"INCLINATION":42.9992,"RA_OF_ASC_NODE":203.9358,"ARG_OF_PERICENTER":285.3347,"MEAN_ANOMALY":74.7364,"EPHEMERIS_TYPE":0,"CLASSIFICATION_TYPE":"U","NORAD_CAT_ID":59352,"ELEMENT_SET_NO":999,"REV_AT_EPOCH":8232,"BSTAR":0.0005760071,"MEAN_MOTION_DOT":0.00015631,"MEAN_MOTION_DDOT":0},{"OBJECT_NAME":"STARLINK-31413","OBJECT_ID":"2024-060F","EPOCH":"2025-09-09T05:30:54.186048","MEAN_MOTION":15.27610439,"ECCENTRICITY":0.000107,"INCLINATION":43.0008,"RA_OF_ASC_NODE":204.4088,"ARG_OF_PERICENTER":265.4487,"MEAN_ANOMALY":94.6242,"EPHEMERIS_TYPE":0,"CLASSIFICATION_TYPE":"U","NORAD_CAT_ID":59353,"ELEMENT_SET_NO":999,"REV_AT_EPOCH":8231,"BSTAR":-7.8813003e-5,"MEAN_MOTION_DOT":-2.432e-5,"MEAN_MOTION_DDOT":0},{"OBJECT_NAME":"STARLINK-31422","OBJECT_ID":"2024-060G","EPOCH":"2025-09-09T06:39:22.448160","MEAN_MOTION":15.275861,"ECCENTRICITY":8.842e-5,"INCLINATION":43.0007,"RA_OF_ASC_NODE":204.7685,"ARG_OF_PERICENTER":255.5303,"MEAN_ANOMALY":104.5451,"EPHEMERIS_TYPE":0,"CLASSIFICATION_TYPE":"U","NORAD_CAT_ID":59354,"ELEMENT_SET_NO":999,"REV_AT_EPOCH":8231,"BSTAR":4.5184231e-5,"MEAN_MOTION_DOT":9.82e-6,"MEAN_MOTION_DDOT":0},{"OBJECT_NAME":"STARLINK-31416","OBJECT_ID":"2024-060H","EPOCH":"2025-09-08T14:20:50.090208","MEAN_MOTION":15.27565184,"ECCENTRICITY":9.269e-5,"INCLINATION":43.0026,"RA_OF_ASC_NODE":208.2676,"ARG_OF_PERICENTER":94.0436,"MEAN_ANOMALY":266.0522,"EPHEMERIS_TYPE":0,"CLASSIFICATION_TYPE":"U","NORAD_CAT_ID":59355,"ELEMENT_SET_NO":999,"REV_AT_EPOCH":8221,"BSTAR":-3.54481e-6,"MEAN_MOTION_DOT":-3.59e-6,"MEAN_MOTION_DDOT":0}]
